KUIPER-00513            
1 69598U 26140G   26194.25107900  .00015449  00000+0  41439-3 0  9992
2 69598  51.8813 272.6627 0007056 329.8255  30.2325 15.38131863  5244
KUIPER-00516            
1 69599U 26140H   26193.60870001  .00013436  00000+0  36856-3 0  9991
2 69599  51.8798 275.8479 0007004 345.9177  14.1614 15.37561991  5141
KUIPER-00517            
1 69600U 26140J   26193.58727652  .00016857  00000+0  44128-3 0  9995
2 69600  51.8775 275.7100 0010576 281.2681  78.7118 15.38784525  5145
KUIPER-00520            
1 69601U 26140K   26194.25960387  .00015470  00000+0  42178-3 0  9998
2 69601  51.8814 272.7205 0006599 349.7390  10.3462 15.37628245  5240
KUIPER-00522            
1 69602U 26140L   26194.23327770  .00024274  00000+0  63282-3 0  9991
2 69602  51.8804 272.5428 0013067 256.9721 102.9808 15.38632171  5246
KUIPER-00528            
1 69603U 26140M   26193.61209804  .00013920  00000+0  38264-3 0  9998
2 69603  51.8788 275.8726 0006373 354.1957   5.8955 15.37466391  5140
KUIPER-00532            
1 69604U 26140N   26193.55679698  .00009751  00000+0  27904-3 0  9990
2 69604  51.8801 276.2470 0005509  24.5719 335.5529 15.36593902  5139
KUIPER-00533            
1 69605U 26140P   26194.24725619  .00023590  00000+0  62408-3 0  9998
2 69605  51.8803 272.6264 0007459 319.8967  40.1469 15.38253351  5241
KUIPER-00534            
1 69606U 26140Q   26194.22826078  .00016633  00000+0  43643-3 0  9998
2 69606  51.8822 272.5153 0013207 258.1641 101.7866 15.38694322  5243
KUIPER-00537            
1 69607U 26140R   26192.59971490  .00011929  00000+0  36403-3 0  9995
2 69607  51.8811 281.0851 0011006  42.8840 317.3002 15.34296234  4989
KUIPER-00538            
1 69608U 26140S   26193.54233288  .00009408  00000+0  26028-3 0  9999
2 69608  51.8813 276.1626 0006912 334.9005  25.1645 15.37691608  5137
KUIPER-00540            
1 69609U 26140T   26194.20316909  .00011496  00000+0  32332-3 0  9991
2 69609  51.8822 273.0895 0006472  17.6111 342.5099 15.36940788  5231
KUIPER-00541            
1 69610U 26140U   26194.24708034  .00200903  00000+0  50693-2 0  9993
2 69610  51.8777 272.6384 0001029  91.7522 268.3583 15.38559259  5247
KUIPER-00542            
1 69611U 26140V   26193.59603860  .00025895  00000+0  68382-3 0  9992
2 69611  51.8789 275.7678 0007499 296.9324  63.0896 15.38254670  5142
KUIPER-00543            
1 69612U 26140W   26193.49225238  .00017002  00000+0  47470-3 0  9997
2 69612  51.8787 276.5601 0007799  25.6702 334.4670 15.36803491  5128
KUIPER-00544            
1 69613U 26140X   26194.25005131  .00014844  00000+0  39838-3 0  9991
2 69613  51.8790 272.6497 0006609 312.8991  47.1441 15.38150344  5244
KUIPER-00546            
1 69614U 26140Y   26194.22881368  .00020151  00000+0  52340-3 0  9994
2 69614  51.8785 272.5133 0014244 255.9155 104.0250 15.38849316  5243
KUIPER-00547            
1 69615U 26140Z   26194.24389944  .00014362  00000+0  38865-3 0  9993
2 69615  51.8822 272.6206 0010731 284.8854  75.0944 15.37891779  5248
KUIPER-00549            
1 69616U 26140AA  26193.48349859  .00019828  00000+0  54271-3 0  9991
2 69616  51.8805 276.5058 0007376   5.5176 354.5891 15.37312837  5120
KUIPER-00550            
1 69617U 26140AB  26194.25003472  .00015452  00000+0  50226-3 0  9991
2 69617  51.8787 273.2791 0007634  56.9979 353.9765 15.32061186  4480
KUIPER-00551            
1 69618U 26140AC  26193.45656904  .00022165  00000+0  58361-3 0  9994
2 69618  51.8784 276.3279 0012243 261.7916  98.1683 15.38393313  5127
KUIPER-00554            
1 69619U 26140AD  26194.24212864  .00015489  00000+0  41739-3 0  9998
2 69619  51.8788 272.5974 0011054 286.1815  73.7955 15.37954522  5248
KUIPER-00555            
1 69620U 26140AE  26194.23941518  .00014912  00000+0  40260-3 0  9992
2 69620  51.8818 272.5927 0011381 272.3460  87.6224 15.37923749  5248
KUIPER-00556            
1 69621U 26140AF  26193.84906221 -.00181525  00000+0 -48965-2 0  9997
2 69621  51.8804 274.4699 0010620 249.9236 110.0608 15.37854962  5187
KUIPER-00557            
1 69622U 26140AG  26194.24741733  .00014099  00000+0  38613-3 0  9997
2 69622  51.8806 272.6399 0009834 293.1374  66.8576 15.37546267  5241
KUIPER-00560            
1 69623U 26140AH  26194.23875845  .00019617  00000+0  51121-3 0  9999
2 69623  51.8795 272.5782 0008578 299.3219  60.6911 15.38829448  5245
KUIPER-00561            
1 69624U 26140AJ  26192.74769253 -.00566727  00000+0 -15961-1 0  9990
2 69624  51.8826 279.8412 0009245 285.6749  74.3218 15.38107852  5014
KUIPER-00564            
1 69625U 26140AK  26194.24400981  .00014678  00000+0  40467-3 0  9990
2 69625  51.8803 272.6141 0009335 289.9448  70.0533 15.37306981  5244
KUIPER-00567            
1 69626U 26140AL  26193.45707103  .00013100  00000+0  35168-3 0  9990
2 69626  51.8803 276.3363 0012746 268.2511  91.7016 15.38204497  5126
KUIPER-00573            
1 69627U 26140AM  26194.25117738  .00012978  00000+0  35754-3 0  9992
2 69627  51.8782 272.6569 0009261 278.4551  81.5386 15.37444275  5244
