OBJECT_NAME,OBJECT_ID,EPOCH,MEAN_MOTION,ECCENTRICITY,INCLINATION,RA_OF_ASC_NODE,ARG_OF_PERICENTER,MEAN_ANOMALY,EPHEMERIS_TYPE,CLASSIFICATION_TYPE,NORAD_CAT_ID,ELEMENT_SET_NO,REV_AT_EPOCH,BSTAR,MEAN_MOTION_DOT,MEAN_MOTION_DDOT
KUIPER-00513,2026-140G,2026-07-13T06:01:33.225600,15.38131863,.00070569,51.8813,272.6627,329.8255,30.2325,0,U,69598,999,524,.41438805E-3,.15449E-3,0
KUIPER-00516,2026-140H,2026-07-12T14:36:31.680864,15.37561991,.0007004,51.8798,275.8479,345.9177,14.1614,0,U,69599,999,514,.36856E-3,.13436E-3,0
KUIPER-00517,2026-140J,2026-07-12T14:05:40.691328,15.38784525,.00105763,51.8775,275.7100,281.2681,78.7118,0,U,69600,999,514,.44127888E-3,.16857E-3,0
KUIPER-00520,2026-140K,2026-07-13T06:13:49.774368,15.37628245,.00065991,51.8814,272.7205,349.7390,10.3462,0,U,69601,999,524,.42177671E-3,.1547E-3,0
KUIPER-00522,2026-140L,2026-07-13T05:35:55.193280,15.38632171,.0013067,51.8804,272.5428,256.9721,102.9808,0,U,69602,999,524,.63281779E-3,.24274E-3,0
KUIPER-00528,2026-140M,2026-07-12T14:41:25.270656,15.37466391,.0006373,51.8788,275.8726,354.1957,5.8955,0,U,69603,999,514,.38264E-3,.1392E-3,0
KUIPER-00532,2026-140N,2026-07-12T13:21:47.259072,15.36593902,.0005509,51.8801,276.2470,24.5719,335.5529,0,U,69604,999,513,.27904E-3,.9751E-4,0
KUIPER-00533,2026-140P,2026-07-13T05:56:02.934816,15.38253351,.00074597,51.8803,272.6264,319.8967,40.1469,0,U,69605,999,524,.62408462E-3,.2359E-3,0
KUIPER-00534,2026-140Q,2026-07-13T05:28:41.731392,15.38694322,.00132071,51.8822,272.5153,258.1641,101.7866,0,U,69606,999,524,.43642742E-3,.16633E-3,0
KUIPER-00537,2026-140R,2026-07-11T14:23:35.367360,15.34296234,.00110069,51.8811,281.0851,42.8840,317.3002,0,U,69607,999,498,.36402965E-3,.11929E-3,0
KUIPER-00538,2026-140S,2026-07-12T13:00:57.560832,15.37691608,.00069128,51.8813,276.1626,334.9005,25.1645,0,U,69608,999,513,.2602778E-3,.9408E-4,0
KUIPER-00540,2026-140T,2026-07-13T04:52:33.809376,15.36940788,.00064729,51.8822,273.0895,17.6111,342.5099,0,U,69609,999,523,.32332481E-3,.11496E-3,0
KUIPER-00541,2026-140U,2026-07-13T05:55:47.741376,15.38559259,.00010295,51.8777,272.6384,91.7522,268.3583,0,U,69610,999,524,.50692983E-2,.200903E-2,0
KUIPER-00542,2026-140V,2026-07-12T14:18:17.735040,15.38254670,.00074992,51.8789,275.7678,296.9324,63.0896,0,U,69611,999,514,.68381595E-3,.25895E-3,0
KUIPER-00543,2026-140W,2026-07-12T11:48:50.605632,15.36803491,.00077995,51.8787,276.5601,25.6702,334.4670,0,U,69612,999,512,.47469651E-3,.17002E-3,0
KUIPER-00544,2026-140X,2026-07-13T06:00:04.433184,15.38150344,.00066092,51.8790,272.6497,312.8991,47.1441,0,U,69613,999,524,.39838415E-3,.14844E-3,0
KUIPER-00546,2026-140Y,2026-07-13T05:29:29.501952,15.38849316,.00142442,51.8785,272.5133,255.9155,104.0250,0,U,69614,999,524,.52340066E-3,.20151E-3,0
KUIPER-00547,2026-140Z,2026-07-13T05:51:12.911616,15.37891779,.00107314,51.8822,272.6206,284.8854,75.0944,0,U,69615,999,524,.38864784E-3,.14362E-3,0
KUIPER-00549,2026-140AA,2026-07-12T11:36:14.278176,15.37312837,.00073762,51.8805,276.5058,5.5176,354.5891,0,U,69616,999,512,.54270577E-3,.19828E-3,0
KUIPER-00550,2026-140AB,2026-07-13T06:00:02.999808,15.32061186,.00076342,51.8787,273.2791,56.9979,353.9765,0,U,69617,999,448,.50226466E-3,.15452E-3,0
KUIPER-00551,2026-140AC,2026-07-12T10:57:27.565056,15.38393313,.00122431,51.8784,276.3279,261.7916,98.1683,0,U,69618,999,512,.58361132E-3,.22165E-3,0
KUIPER-00554,2026-140AD,2026-07-13T05:48:39.914496,15.37954522,.0011054,51.8788,272.5974,286.1815,73.7955,0,U,69619,999,524,.41738536E-3,.15489E-3,0
KUIPER-00555,2026-140AE,2026-07-13T05:44:45.471552,15.37923749,.00113819,51.8818,272.5927,272.3460,87.6224,0,U,69620,999,524,.40259543E-3,.14912E-3,0
KUIPER-00556,2026-140AF,2026-07-12T20:22:38.974944,15.37854962,.001062,51.8804,274.4699,249.9236,110.0608,0,U,69621,999,518,-.48964841E-2,-.181525E-2,0
KUIPER-00557,2026-140AG,2026-07-13T05:56:16.857312,15.37546267,.00098341,51.8806,272.6399,293.1374,66.8576,0,U,69622,999,524,.38613044E-3,.14099E-3,0
KUIPER-00560,2026-140AH,2026-07-13T05:43:48.730080,15.38829448,.00085782,51.8795,272.5782,299.3219,60.6911,0,U,69623,999,524,.51120693E-3,.19617E-3,0
KUIPER-00561,2026-140AJ,2026-07-11T17:56:40.634592,15.38107852,.00092458,51.8826,279.8412,285.6749,74.3218,0,U,69624,999,501,-.15960765E-1,-.566727E-2,0
KUIPER-00564,2026-140AK,2026-07-13T05:51:22.447584,15.37306981,.00093357,51.8803,272.6141,289.9448,70.0533,0,U,69625,999,524,.40467079E-3,.14678E-3,0
KUIPER-00567,2026-140AL,2026-07-12T10:58:10.936992,15.38204497,.00127464,51.8803,276.3363,268.2511,91.7016,0,U,69626,999,512,.35168328E-3,.131E-3,0
KUIPER-00573,2026-140AM,2026-07-13T06:01:41.725632,15.37444275,.00092614,51.8782,272.6569,278.4551,81.5386,0,U,69627,999,524,.35753721E-3,.12978E-3,0
